OBJECT_NAME,OBJECT_ID,EPOCH,MEAN_MOTION,ECCENTRICITY,INCLINATION,RA_OF_ASC_NODE,ARG_OF_PERICENTER,MEAN_ANOMALY,EPHEMERIS_TYPE,CLASSIFICATION_TYPE,NORAD_CAT_ID,ELEMENT_SET_NO,REV_AT_EPOCH,BSTAR,MEAN_MOTION_DOT,MEAN_MOTION_DDOT
LEMUR-2-FINNIAN,2025-276DX,2026-07-12T18:06:41.046336,15.00601115,.00078857,97.5339,263.9508,9.8225,350.3152,0,U,66782,999,2383,.14176978E-3,.1734E-4,0
LEMUR-2-STARLIGHT,2025-276DY,2026-07-12T15:59:40.843680,14.99335039,.00148107,97.5235,263.4338,54.7591,305.5017,0,U,66783,999,3401,.30465516E-3,.3675E-4,0
LEMUR-2-TARTIFLETTE,2025-276DZ,2026-07-12T17:33:26.701920,14.99322354,.00138728,97.5235,263.5049,62.7426,297.5209,0,U,66784,999,3402,.29192288E-3,.3516E-4,0
LEMUR-2-VUKASIN,2025-276EA,2026-07-13T04:05:47.766336,15.00535741,.00034042,97.5238,264.2842,60.3374,299.8189,0,U,66785,999,3404,.22475906E-3,.2777E-4,0
LEMUR-2-HOTSPUR-TOM,2025-276EB,2026-07-12T19:01:15.763584,14.99227481,.00137831,97.5223,263.5388,53.6491,306.6002,0,U,66786,999,3396,.28941245E-3,.3477E-4,0
LEMUR-2-MYRA,2025-276EC,2026-07-12T17:39:39.104064,15.00572080,.00186053,97.5226,263.7829,61.6382,298.6715,0,U,66787,999,3404,.29064221E-3,.3624E-4,0
LEMUR-2 FIKRETDENGIZ,2026-004A,2026-07-12T22:47:09.379968,14.88507915,.00103065,97.8023,192.1152,62.1023,298.1237,0,U,67363,999,2711,.27683743E-3,.252E-4,0
TWILIGHT-1 OBJECT B,2026-004B,2026-07-12T12:21:08.778816,14.87787971,.00099096,97.8073,191.6894,53.6882,306.5248,0,U,67364,999,2705,.11075664E-3,.957E-5,0
LEMUR-2-MARIO-SOUSA,2026-004C,2026-07-12T23:55:23.936448,14.88716641,.00099404,97.7995,192.1569,63.2656,296.9577,0,U,67365,999,2713,.29238783E-3,.2679E-4,0
LEMUR-2-SONNENBLUME,2026-004E,2026-07-12T22:22:07.454208,14.88446772,.00095125,97.7999,192.0669,64.4716,295.7483,0,U,67367,999,2712,.17220435E-3,.1544E-4,0
LEMUR-2-WOBLER,2026-004F,2026-07-12T22:07:13.872576,14.88688331,.00096149,97.8046,192.2054,56.3610,303.8523,0,U,67368,999,2712,.22348539E-3,.2033E-4,0
LEMUR-2-GRAM-E-SUE,2026-004H,2026-07-13T05:59:38.712768,14.88584233,.00087038,97.7986,192.3963,66.1121,294.1007,0,U,67370,999,2717,.14636302E-3,.1309E-4,0
LEMUR-2-KATIE,2026-004AA,2026-07-12T22:34:02.206848,14.90239334,.00036713,97.8041,192.6354,39.3280,320.8204,0,U,67387,999,2714,.33168129E-3,.3162E-4,0
